0 SL-14 R/B
1 19852U 89018B   13282.48560123  .00000051  00000-0  32423-4 0  6661
2 19852 082.5184 285.7903 0016403 238.2619 231.8049 13.83993485243261
0 SL-14 R/B
1 19852U 89018B   13283.50967581  .00000059  00000-0  40019-4 0  6673
2 19852 082.5183 284.9740 0016465 235.1370 294.3838 13.83993656243404
0 SL-14 R/B
1 19852U 89018B   13285.74259575  .00000027  00000-0  11038-4 0  6694
2 19852 082.5183 283.1940 0016581 228.5587 259.9492 13.83993935243719
0 SL-14 R/B
1 19852U 89018B   13287.17289503  .00000017  00000-0  18037-5 0  6705
2 19852 082.5184 282.0536 0016674 224.3550 186.4335 13.83994191243913
0 SL-14 R/B
1 19852U 89018B   13288.49553583  .00000017  00000-0  22569-5 0  6719
2 19852 082.5186 280.9991 0016752 220.4833 296.4933 13.83994216244099
0 SL-14 R/B
1 19852U 89018B   13289.50652648  .00000012  00000-0 -26640-5 0  6725
2 19852 082.5188 280.1930 0016798 217.5594 293.7207 13.83994261244237
0 SL-14 R/B
1 19852U 89018B   13290.51468101  .00000014  00000-0 -81187-6 0  6738
2 19852 082.5190 279.3892 0016852 214.6640 276.7972 13.83994250244371
0 SL-14 R/B
1 19852U 89018B   13291.52360332  .00000025  00000-0  89992-5 0  6740
2 19852 082.5192 278.5848 0016933 211.7570 263.7091 13.83994191244513
0 SL-14 R/B
1 19852U 89018B   13292.54062951  .00000036  00000-0  19373-4 0  6757
2 19852 082.5194 277.7741 0016995 208.8357 290.9889 13.83994060244653
0 SL-14 R/B
1 19852U 89018B   13293.82340388  .00000043  00000-0  25672-4 0  6760
2 19852 082.5194 276.7516 0017071 205.1483 202.3472 13.83993959244839
0 SL-14 R/B
1 19852U 89018B   13294.83671825  .00000055  00000-0  36408-4 0  6778
2 19852 082.5195 275.9439 0017134 202.2705 211.0995 13.83994056244971
0 SL-14 R/B
1 19852U 89018B   13296.06377818  .00000063  00000-0  43144-4 0  6785
2 19852 082.5195 274.9659 0017228 198.7720 204.8347 13.83994190245144
